{
  "type": "FeatureCollection",
  "features": [
    {
      "type": "Feature",
      "properties": {
        "norad_id": 32275,
        "name": "COSMOS 2433 (720)",
        "group": "glo-ops",
        "lat": 62.24443797030926,
        "lon": 21.69055432693745,
        "alt_km": 19137.12311197164,
        "timestamp": "2025-12-04T17:48:40.427017+00:00",
        "meta_object_name": "COSMOS 2433 (720)",
        "meta_object_id": "2007-052A",
        "meta_epoch": "2025-12-03T16:54:04.921632",
        "meta_mean_motion": 2.13103907,
        "meta_eccentricity": 0.00055343,
        "meta_inclination": 65.6881,
        "meta_ra_of_asc_node": 322.5094,
        "meta_arg_of_pericenter": 252.6226,
        "meta_mean_anomaly": 107.3209,
        "meta_ephemeris_type": 0,
        "meta_classification_type": "U",
        "meta_norad_cat_id": 32275,
        "meta_element_set_no": 999,
        "meta_rev_at_epoch": 14089,
        "meta_bstar": 0,
        "meta_mean_motion_dot": -4.1e-07,
        "meta_mean_motion_ddot": 0,
        "tle_line1": "1 32275U 07052A   25337.70422363 -.00000041  00000+0  00000+0 0  9994",
        "tle_line2": "2 32275  65.6881 322.5094 0005534 252.6226 107.3209  2.13103907140892"
      },
      "geometry": {
        "type": "Point",
        "coordinates": [
          21.69055432693745,
          62.24443797030926
        ]
      }
    },
    {
      "type": "Feature",
      "properties": {
        "norad_id": 32276,
        "name": "COSMOS 2432 (719)",
        "group": "glo-ops",
        "lat": 18.888467570307032,
        "lon": -28.517837933147444,
        "alt_km": 19117.67596679773,
        "timestamp": "2025-12-04T17:48:40.427040+00:00",
        "meta_object_name": "COSMOS 2432 (719)",
        "meta_object_id": "2007-052B",
        "meta_epoch": "2025-12-04T05:57:29.853216",
        "meta_mean_motion": 2.13103044,
        "meta_eccentricity": 0.00112549,
        "meta_inclination": 65.7037,
        "meta_ra_of_asc_node": 322.6151,
        "meta_arg_of_pericenter": 311.6723,
        "meta_mean_anomaly": 50.1314,
        "meta_ephemeris_type": 0,
        "meta_classification_type": "U",
        "meta_norad_cat_id": 32276,
        "meta_element_set_no": 999,
        "meta_rev_at_epoch": 14093,
        "meta_bstar": 0,
        "meta_mean_motion_dot": -4.4e-07,
        "meta_mean_motion_ddot": 0,
        "tle_line1": "1 32276U 07052B   25338.24826219 -.00000044  00000+0  00000+0 0  9996",
        "tle_line2": "2 32276  65.7037 322.6151 0011254 311.6723  50.1314  2.13103044140935"
      },
      "geometry": {
        "type": "Point",
        "coordinates": [
          -28.517837933147444,
          18.888467570307032
        ]
      }
    },
    {
      "type": "Feature",
      "properties": {
        "norad_id": 32393,
        "name": "COSMOS 2434 (721)",
        "group": "glo-ops",
        "lat": -29.6359198655139,
        "lon": -177.41106975983107,
        "alt_km": 19136.647981602884,
        "timestamp": "2025-12-04T17:48:40.427054+00:00",
        "meta_object_name": "COSMOS 2434 (721)",
        "meta_object_id": "2007-065A",
        "meta_epoch": "2025-12-01T06:30:38.524608",
        "meta_mean_motion": 2.13101181,
        "meta_eccentricity": 0.00043375,
        "meta_inclination": 64.3147,
        "meta_ra_of_asc_node": 198.5905,
        "meta_arg_of_pericenter": 70.7489,
        "meta_mean_anomaly": 113.3938,
        "meta_ephemeris_type": 0,
        "meta_classification_type": "U",
        "meta_norad_cat_id": 32393,
        "meta_element_set_no": 999,
        "meta_rev_at_epoch": 13955,
        "meta_bstar": 0,
        "meta_mean_motion_dot": 1.02e-06,
        "meta_mean_motion_ddot": 0,
        "tle_line1": "1 32393U 07065A   25335.27127922  .00000102  00000+0  00000+0 0  9999",
        "tle_line2": "2 32393  64.3147 198.5905 0004337  70.7489 113.3938  2.13101181139555"
      },
      "geometry": {
        "type": "Point",
        "coordinates": [
          -177.41106975983107,
          -29.6359198655139
        ]
      }
    },
    {
      "type": "Feature",
      "properties": {
        "norad_id": 32395,
        "name": "COSMOS 2436 (723)",
        "group": "glo-ops",
        "lat": 62.52050652224828,
        "lon": -49.089610610943296,
        "alt_km": 19124.24847641537,
        "timestamp": "2025-12-04T17:48:40.427068+00:00",
        "meta_object_name": "COSMOS 2436 (723)",
        "meta_object_id": "2007-065C",
        "meta_epoch": "2025-12-01T01:03:25.836192",
        "meta_mean_motion": 2.13099978,
        "meta_eccentricity": 0.00177119,
        "meta_inclination": 64.3233,
        "meta_ra_of_asc_node": 198.6683,
        "meta_arg_of_pericenter": 8.6583,
        "meta_mean_anomaly": 134.2889,
        "meta_ephemeris_type": 0,
        "meta_classification_type": "U",
        "meta_norad_cat_id": 32395,
        "meta_element_set_no": 999,
        "meta_rev_at_epoch": 13950,
        "meta_bstar": 0,
        "meta_mean_motion_dot": 1e-06,
        "meta_mean_motion_ddot": 0,
        "tle_line1": "1 32395U 07065C   25335.04404903  .00000100  00000+0  00000+0 0  9991",
        "tle_line2": "2 32395  64.3233 198.6683 0017711   8.6583 134.2889  2.13099978139504"
      },
      "geometry": {
        "type": "Point",
        "coordinates": [
          -49.089610610943296,
          62.52050652224828
        ]
      }
    },
    {
      "type": "Feature",
      "properties": {
        "norad_id": 36111,
        "name": "COSMOS 2456 (730)",
        "group": "glo-ops",
        "lat": 48.71844229262897,
        "lon": -134.60162664473208,
        "alt_km": 19131.324583216105,
        "timestamp": "2025-12-04T17:48:40.427080+00:00",
        "meta_object_name": "COSMOS 2456 (730)",
        "meta_object_id": "2009-070A",
        "meta_epoch": "2025-12-02T04:31:21.819072",
        "meta_mean_motion": 2.13103415,
        "meta_eccentricity": 0.0002798,
        "meta_inclination": 64.8943,
        "meta_ra_of_asc_node": 77.6987,
        "meta_arg_of_pericenter": 298.3251,
        "meta_mean_anomaly": 26.4531,
        "meta_ephemeris_type": 0,
        "meta_classification_type": "U",
        "meta_norad_cat_id": 36111,
        "meta_element_set_no": 999,
        "meta_rev_at_epoch": 12422,
        "meta_bstar": 0,
        "meta_mean_motion_dot": -2.2e-07,
        "meta_mean_motion_ddot": 0,
        "tle_line1": "1 36111U 09070A   25336.18844698 -.00000022  00000+0  00000+0 0  9998",
        "tle_line2": "2 36111  64.8943  77.6987 0002798 298.3251  26.4531  2.13103415124220"
      },
      "geometry": {
        "type": "Point",
        "coordinates": [
          -134.60162664473208,
          48.71844229262897
        ]
      }
    },
    {
      "type": "Feature",
      "properties": {
        "norad_id": 36112,
        "name": "COSMOS 2457 (733)",
        "group": "glo-ops",
        "lat": -60.10536266053389,
        "lon": -47.981679386938914,
        "alt_km": 19137.883381561445,
        "timestamp": "2025-12-04T17:48:40.427093+00:00",
        "meta_object_name": "COSMOS 2457 (733)",
        "meta_object_id": "2009-070B",
        "meta_epoch": "2025-12-03T00:06:14.592384",
        "meta_mean_motion": 2.13100787,
        "meta_eccentricity": 0.00049101,
        "meta_inclination": 64.8799,
        "meta_ra_of_asc_node": 77.5186,
        "meta_arg_of_pericenter": 156.2376,
        "meta_mean_anomaly": 203.7006,
        "meta_ephemeris_type": 0,
        "meta_classification_type": "U",
        "meta_norad_cat_id": 36112,
        "meta_element_set_no": 999,
        "meta_rev_at_epoch": 12424,
        "meta_bstar": 0,
        "meta_mean_motion_dot": -2.5e-07,
        "meta_mean_motion_ddot": 0,
        "tle_line1": "1 36112U 09070B   25337.00433556 -.00000025  00000+0  00000+0 0  9991",
        "tle_line2": "2 36112  64.8799  77.5186 0004910 156.2376 203.7006  2.13100787124246"
      },
      "geometry": {
        "type": "Point",
        "coordinates": [
          -47.981679386938914,
          -60.10536266053389
        ]
      }
    },
    {
      "type": "Feature",
      "properties": {
        "norad_id": 36402,
        "name": "COSMOS 2460 (732)",
        "group": "glo-ops",
        "lat": -60.22034787758694,
        "lon": -166.23918930824084,
        "alt_km": 19129.155664348542,
        "timestamp": "2025-12-04T17:48:40.427105+00:00",
        "meta_object_name": "COSMOS 2460 (732)",
        "meta_object_id": "2010-007C",
        "meta_epoch": "2025-12-01T05:49:09.827040",
        "meta_mean_motion": 2.13106053,
        "meta_eccentricity": 0.00028009,
        "meta_inclination": 65.536,
        "meta_ra_of_asc_node": 321.162,
        "meta_arg_of_pericenter": 269.9918,
        "meta_mean_anomaly": 177.6167,
        "meta_ephemeris_type": 0,
        "meta_classification_type": "U",
        "meta_norad_cat_id": 36402,
        "meta_element_set_no": 999,
        "meta_rev_at_epoch": 12251,
        "meta_bstar": 0,
        "meta_mean_motion_dot": -2.6e-07,
        "meta_mean_motion_ddot": 0,
        "tle_line1": "1 36402U 10007C   25335.24247485 -.00000026  00000+0  00000+0 0  9994",
        "tle_line2": "2 36402  65.5360 321.1620 0002800 269.9918 177.6167  2.13106053122518"
      },
      "geometry": {
        "type": "Point",
        "coordinates": [
          -166.23918930824084,
          -60.22034787758694
        ]
      }
    }
  ]
}